ORBCOMM FM108           
1 41187U 15081J   24147.93966619  .00001423  00000+0  35306-3 0  9992
2 41187  47.0026 128.9616 0003321 324.3330  35.7332 14.56659851450453
ORBCOMM FM117           
1 41188U 15081K   24147.21986382  .00000733  00000+0  20024-3 0  9997
2 41188  46.9997 131.2440 0003645 333.7795  26.2905 14.56615440450399
ORBCOMM FM116           
1 41189U 15081L   24147.89454934  .00001281  00000+0  32131-3 0  9996
2 41189  46.9999 217.8826 0000877  76.4571 283.6411 14.56686252449307
